[{"OBJECT_NAME":"ONEWEB-0174","OBJECT_ID":"2021-025AG","EPOCH":"2026-03-09T17:16:42.965472","MEAN_MOTION":13.13470056,"ECCENTRICITY":0.00017507,"INCLINATION":87.9034,"RA_OF_ASC_NODE":340.0081,"ARG_OF_PERICENTER":73.6886,"MEAN_ANOMALY":286.4436,"EPHEMERIS_TYPE":0,"CLASSIFICATION_TYPE":"U","NORAD_CAT_ID":48072,"ELEMENT_SET_NO":999,"REV_AT_EPOCH":24077,"BSTAR":9.8991662e-5,"MEAN_MOTION_DOT":4.9e-7,"MEAN_MOTION_DDOT":0},{"OBJECT_NAME":"FENGYUN 1C DEB","OBJECT_ID":"1999-025RP","EPOCH":"2026-03-09T19:24:09.713664","MEAN_MOTION":13.56282391,"ECCENTRICITY":0.02690192,"INCLINATION":98.9051,"RA_OF_ASC_NODE":174.3965,"ARG_OF_PERICENTER":128.6168,"MEAN_ANOMALY":233.9391,"EPHEMERIS_TYPE":0,"CLASSIFICATION_TYPE":"U","NORAD_CAT_ID":30110,"ELEMENT_SET_NO":999,"REV_AT_EPOCH":94695,"BSTAR":0.00034560876,"MEAN_MOTION_DOT":2.7e-6,"MEAN_MOTION_DDOT":0}]
